NORAD_CAT_ID,OBJECT_NAME,OBJECT_TYPE,EPOCH,MEAN_MOTION,ECCENTRICITY,INCLINATION,RA_OF_ASC_NODE,ARG_OF_PERICENTER,MEAN_ANOMALY,BSTAR,MEAN_MOTION_DOT,MEAN_MOTION_DDOT,TLE_LINE0,TLE_LINE1,TLE_LINE2,SEMIMAJOR_AXIS,PERIOD,APOGEE,PERIGEE,DECAYED
54176.0,STARLINK-5154,PAYLOAD,2024-05-06 07:30:50,15.0883976,0.0001287,53.2158,142.3875,90.5644,269.5496,0.00014048,1.949e-05,0.0,0 STARLINK-5154,1 54176U 22141V   24127.31308405  .00001949  00000-0  14048-3 0  9996,2 54176  53.2158 142.3875 0001287  90.5644 269.5496 15.08839760 84353,6917.881,95.438,540.636,538.856,0.0
54176.0,STARLINK-5154,PAYLOAD,2024-05-07 04:10:51,15.08844881,0.0001319,53.2164,138.5212,92.9846,267.1297,5.9493e-05,6.59e-06,0.0,0 STARLINK-5154,1 54176U 22141V   24128.17420270  .00000659  00000-0  59493-4 0  9997,2 54176  53.2164 138.5212 0001319  92.9846 267.1297 15.08844881 84485,6917.865,95.437,540.643,538.818,0.0
54176.0,STARLINK-5154,PAYLOAD,2024-05-07 07:21:37,15.08844603,0.0001308,53.2162,137.9263,93.7356,266.3786,5.6433e-05,6.1e-06,0.0,0 STARLINK-5154,1 54176U 22141V   24128.30668245  .00000610  00000-0  56433-4 0  9996,2 54176  53.2162 137.9263 0001308  93.7356 266.3786 15.08844603 84504,6917.866,95.437,540.636,538.826,0.0
54176.0,STARLINK-5154,PAYLOAD,2024-05-07 20:04:42,15.08843981,0.0001293,53.2157,135.5471,93.1352,266.9788,2.7787e-05,1.54e-06,0.0,0 STARLINK-5154,1 54176U 22141V   24128.83660154  .00000154  00000-0  27787-4 0  9998,2 54176  53.2157 135.5471 0001293  93.1352 266.9788 15.08843981 84580,6917.868,95.437,540.628,538.839,0.0
54176.0,STARLINK-5154,PAYLOAD,2024-05-08 04:01:38,15.08838668,0.0001281,53.2151,134.0601,92.3507,267.7631,-1.211e-05,-4.81e-06,0.0,0 STARLINK-5154,1 54176U 22141V   24129.16780601 -.00000481  00000-0 -12110-4 0  9994,2 54176  53.2151 134.0601 0001281  92.3507 267.7631 15.08838668 84631,6917.884,95.438,540.636,538.863,0.0
54176.0,STARLINK-5154,PAYLOAD,2024-05-08 07:12:24,15.08839966,0.000124,53.2152,133.4663,89.864,270.2494,-1.3268e-06,-3.09e-06,0.0,0 STARLINK-5154,1 54176U 22141V   24129.30028480 -.00000309  00000-0 -13268-5 0  9995,2 54176  53.2152 133.4663 0001240  89.8640 270.2494 15.08839966 84657,6917.88,95.438,540.603,538.888,0.0
54176.0,STARLINK-5154,PAYLOAD,2024-05-08 16:44:43,15.08843625,0.0001267,53.2155,131.6821,90.1678,269.946,1.7046e-05,-1.7e-07,0.0,0 STARLINK-5154,1 54176U 22141V   24129.69772129 -.00000017  00000-0  17046-4 0  9995,2 54176  53.2155 131.6821 0001267  90.1678 269.9460 15.08843625 84713,6917.869,95.437,540.611,538.858,0.0
54176.0,STARLINK-5154,PAYLOAD,2024-05-09 07:03:11,15.08835814,0.0001405,53.2164,129.0074,94.3201,265.7952,-3.038e-06,-3.36e-06,0.0,0 STARLINK-5154,1 54176U 22141V   24130.29388738 -.00000336  00000-0 -30380-5 0  9994,2 54176  53.2164 129.0074 0001405  94.3201 265.7952 15.08835814 84807,6917.893,95.438,540.73,538.786,0.0
54176.0,STARLINK-5154,PAYLOAD,2024-05-09 16:35:30,15.08841716,0.000143,53.2168,127.2233,94.8074,265.3081,1.6387e-05,-2.7e-07,0.0,0 STARLINK-5154,1 54176U 22141V   24130.69132368 -.00000027  00000-0  16387-4 0  9990,2 54176  53.2168 127.2233 0001430  94.8074 265.3081 15.08841716 84862,6917.875,95.437,540.729,538.751,0.0
54176.0,STARLINK-5154,PAYLOAD,2024-05-10 08:29:22,15.08837653,0.0001473,53.2179,124.2502,95.8275,264.2886,5.0771e-05,5.2e-06,0.0,0 STARLINK-5154,1 54176U 22141V   24131.35372760  .00000520  00000-0  50771-4 0  9998,2 54176  53.2179 124.2502 0001473  95.8275 264.2886 15.08837653 84968,6917.888,95.438,540.772,538.734,0.0
54176.0,STARLINK-5154,PAYLOAD,2024-05-10 16:26:17,15.08844496,0.000145,53.2182,122.7631,93.1482,266.9676,9.0325e-05,1.15e-05,0.0,0 STARLINK-5154,1 54176U 22141V   24131.68492231  .00001150  00000-0  90325-4 0  9999,2 54176  53.2182 122.7631 0001450  93.1482 266.9676 15.08844496 85010,6917.867,95.437,540.735,538.729,0.0
54176.0,STARLINK-5154,PAYLOAD,2024-05-11 05:09:22,15.08839242,0.0001762,53.2182,120.3842,87.7185,272.4009,7.7729e-05,9.49e-06,0.0,0 STARLINK-5154,1 54176U 22141V   24132.21484914  .00000949  00000-0  77729-4 0  9996,2 54176  53.2182 120.3842 0001762  87.7185 272.4009 15.08839242 85096,6917.883,95.438,540.967,538.529,0.0
54176.0,STARLINK-5154,PAYLOAD,2024-05-11 08:20:07,15.08860838,0.0001506,53.2176,119.7889,88.4961,271.6203,0.00026963,4.008e-05,0.0,0 STARLINK-5154,1 54176U 22141V   24132.34731334  .00004008  00000-0  26963-3 0  9994,2 54176  53.2176 119.7889 0001506  88.4961 271.6203 15.08860838 85113,6917.817,95.436,540.724,538.64,0.0
54176.0,STARLINK-5154,PAYLOAD,2024-05-11 22:38:37,15.08830826,0.000176,53.2169,117.1127,91.8548,268.2646,-1.06e-05,-4.57e-06,0.0,0 STARLINK-5154,1 54176U 22141V   24132.94349150 -.00000457  00000-0 -10600-4 0  9999,2 54176  53.2169 117.1127 0001760  91.8548 268.2646 15.08830826 85200,6917.908,95.438,540.991,538.556,0.0
54176.0,STARLINK-5154,PAYLOAD,2024-05-12 05:00:10,15.08825737,0.0001379,53.2166,115.9232,96.3677,263.7472,-5.7106e-05,-1.196e-05,0.0,0 STARLINK-5154,1 54176U 22141V   24133.20845669 -.00001196  00000-0 -57106-4 0  9998,2 54176  53.2166 115.9232 0001379  96.3677 263.7472 15.08825737 85245,6917.924,95.438,540.743,538.835,0.0
54176.0,STARLINK-5154,PAYLOAD,2024-05-12 06:35:33,15.08830862,0.000136,53.2165,115.6246,97.6524,262.4622,-5.7582e-05,-1.204e-05,0.0,0 STARLINK-5154,1 54176U 22141V   24133.27469345 -.00001204  00000-0 -57582-4 0  9996,2 54176  53.2165 115.6246 0001360  97.6524 262.4622 15.08830862 85250,6917.908,95.438,540.714,538.832,0.0
54176.0,STARLINK-5154,PAYLOAD,2024-05-12 16:07:52,15.08834513,0.0001403,53.217,113.8413,95.8789,264.2363,-4.6479e-05,-1.027e-05,0.0,0 STARLINK-5154,1 54176U 22141V   24133.67213253 -.00001027  00000-0 -46479-4 0  9991,2 54176  53.2170 113.8413 0001403  95.8789 264.2363 15.08834513 85319,6917.897,95.438,540.733,538.792,0.0
54176.0,STARLINK-5154,PAYLOAD,2024-05-12 22:29:24,15.0883231,0.0001598,53.2167,112.6516,95.5387,264.5787,-4.5558e-06,-3.6e-06,0.0,0 STARLINK-5154,1 54176U 22141V   24133.93709434 -.00000360  00000-0 -45558-5 0  9998,2 54176  53.2167 112.6516 0001598  95.5387 264.5787 15.08832310 85352,6917.904,95.438,540.874,538.663,0.0
54176.0,STARLINK-5154,PAYLOAD,2024-05-13 08:01:43,15.08835963,0.000144,53.2155,110.8668,104.5898,255.5254,-0.00010633,-1.98e-05,0.0,0 STARLINK-5154,1 54176U 22141V   24134.33453122 -.00001980  00000-0 -10633-3 0  9996,2 54176  53.2155 110.8668 0001440 104.5898 255.5254 15.08835963 85414,6917.893,95.438,540.754,538.762,0.0
54176.0,STARLINK-5154,PAYLOAD,2024-05-13 15:58:39,15.08838888,0.000145,53.2158,109.3803,100.833,259.2825,-4.588e-05,-1.018e-05,0.0,0 STARLINK-5154,1 54176U 22141V   24134.66573100 -.00001018  00000-0 -45880-4 0  9996,2 54176  53.2158 109.3803 0001450 100.8330 259.2825 15.08838888 85461,6917.884,95.438,540.752,538.746,0.0
54176.0,STARLINK-5154,PAYLOAD,2024-05-14 04:41:44,15.08833494,0.0001442,53.2166,107.0011,109.2528,250.8621,0.00028127,4.191e-05,0.0,0 STARLINK-5154,1 54176U 22141V   24135.19565292  .00004191  00000-0  28127-3 0  9995,2 54176  53.2166 107.0011 0001442 109.2528 250.8621 15.08833494 85547,6917.9,95.438,540.763,538.768,0.0
54176.0,STARLINK-5154,PAYLOAD,2024-05-15 04:32:31,15.08848778,0.0001383,53.216,102.5413,105.4718,254.6426,0.00028148,4.196e-05,0.0,0 STARLINK-5154,1 54176U 22141V   24136.18925089  .00004196  00000-0  28148-3 0  9997,2 54176  53.2160 102.5413 0001383 105.4718 254.6426 15.08848778 85692,6917.854,95.437,540.675,538.762,0.0
54176.0,STARLINK-5154,PAYLOAD,2024-05-15 22:01:45,15.08847783,0.0001487,53.2167,99.2688,105.2544,254.8612,0.00011058,1.473e-05,0.0,0 STARLINK-5154,1 54176U 22141V   24136.91788854  .00001473  00000-0  11058-3 0  9992,2 54176  53.2167  99.2688 0001487 105.2544 254.8612 15.08847783 85802,6917.857,95.437,540.75,538.693,0.0
54176.0,STARLINK-5154,PAYLOAD,2024-05-16 04:23:18,15.0884273,0.0001329,53.2165,98.0806,97.1555,262.9588,2.795e-05,1.57e-06,0.0,0 STARLINK-5154,1 54176U 22141V   24137.18284990  .00000157  00000-0  27950-4 0  9991,2 54176  53.2165  98.0806 0001329  97.1555 262.9588 15.08842730 85848,6917.872,95.437,540.656,538.818,0.0
54176.0,STARLINK-5154,PAYLOAD,2024-05-16 07:34:04,15.08845764,0.0001359,53.2166,97.4833,93.6039,266.5109,7.4029e-05,8.91e-06,0.0,0 STARLINK-5154,1 54176U 22141V   24137.31532795  .00000891  00000-0  74029-4 0  9999,2 54176  53.2166  97.4833 0001359  93.6039 266.5109 15.08845764 85864,6917.863,95.437,540.668,538.788,0.0
54176.0,STARLINK-5154,PAYLOAD,2024-05-16 21:52:32,15.08837648,0.0001402,53.2168,94.807,89.002,271.1133,-4.3063e-05,-9.73e-06,0.0,0 STARLINK-5154,1 54176U 22141V   24137.91149171 -.00000973  00000-0 -43063-4 0  9994,2 54176  53.2168  94.8070 0001402  89.0020 271.1133 15.08837648 85959,6917.888,95.438,540.722,538.783,0.0
54176.0,STARLINK-5154,PAYLOAD,2024-05-17 04:14:06,15.08833789,0.000134,53.2176,93.6197,86.7665,273.3481,-5.1281e-05,-1.104e-05,0.0,0 STARLINK-5154,1 54176U 22141V   24138.17645956 -.00001104  00000-0 -51281-4 0  9993,2 54176  53.2176  93.6197 0001340  86.7665 273.3481 15.08833789 85991,6917.899,95.438,540.691,538.837,0.0
54176.0,STARLINK-5154,PAYLOAD,2024-05-17 13:46:24,15.0884035,0.0001438,53.2182,91.8351,90.8703,269.2454,3.4e-05,2.53e-06,0.0,0 STARLINK-5154,1 54176U 22141V   24138.57389344  .00000253  00000-0  34000-4 0  9995,2 54176  53.2182  91.8351 0001438  90.8703 269.2454 15.08840350 86051,6917.879,95.438,540.739,538.75,0.0
54176.0,STARLINK-5154,PAYLOAD,2024-05-17 20:07:58,15.08827316,0.0002082,53.218,90.6445,83.491,276.6319,-9.9733e-06,-4.47e-06,0.0,0 STARLINK-5154,1 54176U 22141V   24138.83886606 -.00000447  00000-0 -99733-5 0  9999,2 54176  53.2180  90.6445 0002082  83.4910 276.6319 15.08827316 86097,6917.919,95.438,541.224,538.344,0.0
54176.0,STARLINK-5154,PAYLOAD,2024-05-18 05:40:16,15.08837297,0.0001329,53.2172,88.8574,92.2873,267.8271,6.1531e-05,6.91e-06,0.0,0 STARLINK-5154,1 54176U 22141V   24139.23629846  .00000691  00000-0  61531-4 0  9998,2 54176  53.2172  88.8574 0001329  92.2873 267.8271 15.08837297 86154,6917.889,95.438,540.673,538.834,0.0
